ONEWEB-0393             
1 50473U 21132E   24075.67754532  .00001950  00000+0  49863-2 0  9991
2 50473  87.9268 169.6585 0001940 115.6778 244.4554 13.17657575109667
ONEWEB-0394             
1 50474U 21132F   24076.21718346  .00000031  00000+0  45850-4 0  9999
2 50474  87.9186 139.2708 0002225 102.0882 258.0500 13.18688506114409
ONEWEB-0395             
1 50475U 21132G   24076.23045096  .00000072  00000+0  16857-3 0  9996
2 50475  87.9037 184.7264 0001986 113.1390 246.9947 13.11414580109123
ONEWEB-0396             
1 50476U 21132H   24076.21086227 -.00000312  00000+0 -82400-3 0  9992
2 50476  87.9187 139.2651 0002378 101.9584 258.1815 13.18685241114442
ONEWEB-0397             
1 50477U 21132J   24076.22509299  .00000058  00000+0  11337-3 0  9999
2 50477  87.9198 139.2655 0002290 101.2706 258.8683 13.18687239114428
ONEWEB-0398             
1 50478U 21132K   24075.35874672  .00000483  00000+0  13278-2 0  9990
2 50478  87.9035 184.8819 0001810 121.9545 238.1759 13.11417898107639
ONEWEB-0400             
1 50480U 21132M   24076.20453943  .00000041  00000+0  70452-4 0  9991
2 50480  87.9176 139.2729 0001798 106.0564 254.0766 13.18686822114424
